QZS-1R                  
1 49336U 21096A   24075.91048442 -.00000275  00000+0  00000+0 0  9996
2 49336  35.7514  91.9394 0749526 269.6101 273.7362  1.00291490  8751
